{"type": "FeatureCollection", "features": [ {"type": "Feature", "properties": {"norad_id": 38953, "name": "BEIDOU-2 G6 (C02)", "group": "beidou", "lat": 1.3253008474385422, "lon": 94.84747077879618, "alt_km": 35786.25970811978, "timestamp": "2025-12-08T19:31:49.075370+00:00", "meta": {"OBJECT_NAME": "BEIDOU-2 G6 (C02)", "OBJECT_ID": "2012-059A", "EPOCH": "2025-12-08T01:04:51.660768", "MEAN_MOTION": 1.0027016, "ECCENTRICITY": 0.00076578, "INCLINATION": 3.9371, "RA_OF_ASC_NODE": 75.5489, "ARG_OF_PERICENTER": 289.4213, "MEAN_ANOMALY": 172.3411, "EPHEMERIS_TYPE": 0, "CLASSIFICATION_TYPE": "U", "NORAD_CAT_ID": 38953, "ELEMENT_SET_NO": 999, "REV_AT_EPOCH": 4799, "BSTAR": 0, "MEAN_MOTION_DOT": -1.74e-06, "MEAN_MOTION_DDOT": 0}, "tle": {"line1": "1 38953U 12059A   25342.04504237 -.00000174  00000+0  00000+0 0  9997", "line2": "2 38953   3.9371  75.5489 0007657 289.4213 172.3411  1.00270160 47990"}}, "geometry": {"type": "Point", "coordinates": [94.84747077879618, 1.3253008474385422]}}, {"type": "Feature", "properties": {"norad_id": 40748, "name": "BEIDOU-3S M2S (C58)", "group": "beidou", "lat": 51.37805184124655, "lon": 9.627781239379006, "alt_km": 21555.30865212545, "timestamp": "2025-12-08T19:31:49.075381+00:00", "meta": {"OBJECT_NAME": "BEIDOU-3S M2S (C58)", "OBJECT_ID": "2015-037A", "EPOCH": "2025-12-07T02:16:25.877280", "MEAN_MOTION": 1.86229046, "ECCENTRICITY": 0.00123234, "INCLINATION": 55.0438, "RA_OF_ASC_NODE": 308.6574, "ARG_OF_PERICENTER": 268.1088, "MEAN_ANOMALY": 91.7345, "EPHEMERIS_TYPE": 0, "CLASSIFICATION_TYPE": "U", "NORAD_CAT_ID": 40748, "ELEMENT_SET_NO": 999, "REV_AT_EPOCH": 7054, "BSTAR": 0, "MEAN_MOTION_DOT": -7e-07, "MEAN_MOTION_DDOT": 0}, "tle": {"line1": "1 40748U 15037A   25341.09474395 -.00000070  00000+0  00000+0 0  9991", "line2": "2 40748  55.0438 308.6574 0012323 268.1088  91.7345  1.86229046 70540"}}, "geometry": {"type": "Point", "coordinates": [9.627781239379006, 51.37805184124655]}}, {"type": "Feature", "properties": {"norad_id": 40749, "name": "BEIDOU-3S M1S (C57)", "group": "beidou", "lat": -54.28882876173813, "lon": -127.9866281711686, "alt_km": 21529.71552052447, "timestamp": "2025-12-08T19:31:49.075391+00:00", "meta": {"OBJECT_NAME": "BEIDOU-3S M1S (C57)", "OBJECT_ID": "2015-037B", "EPOCH": "2025-12-01T22:57:46.412352", "MEAN_MOTION": 1.86253762, "ECCENTRICITY": 0.0003321, "INCLINATION": 55.0451, "RA_OF_ASC_NODE": 308.8236, "ARG_OF_PERICENTER": 355.9906, "MEAN_ANOMALY": 3.9975, "EPHEMERIS_TYPE": 0, "CLASSIFICATION_TYPE": "U", "NORAD_CAT_ID": 40749, "ELEMENT_SET_NO": 999, "REV_AT_EPOCH": 7045, "BSTAR": 0, "MEAN_MOTION_DOT": -6e-07, "MEAN_MOTION_DDOT": 0}, "tle": {"line1": "1 40749U 15037B   25335.95678718 -.00000060  00000+0  00000+0 0  9994", "line2": "2 40749  55.0451 308.8236 0003321 355.9906   3.9975  1.86253762 70451"}}, "geometry": {"type": "Point", "coordinates": [-127.9866281711686, -54.28882876173813]}}, {"type": "Feature", "properties": {"norad_id": 40938, "name": "BEIDOU-3S IGSO-2S (C56)", "group": "beidou", "lat": -19.469407516646253, "lon": 98.57851426963249, "alt_km": 35543.43308997869, "timestamp": "2025-12-08T19:31:49.075402+00:00", "meta": {"OBJECT_NAME": "BEIDOU-3S IGSO-2S (C56)", "OBJECT_ID": "2015-053A", "EPOCH": "2025-12-07T17:59:38.817312", "MEAN_MOTION": 1.00270783, "ECCENTRICITY": 0.0060962, "INCLINATION": 49.5194, "RA_OF_ASC_NODE": 261.0646, "ARG_OF_PERICENTER": 188.6217, "MEAN_ANOMALY": 353.0712, "EPHEMERIS_TYPE": 0, "CLASSIFICATION_TYPE": "U", "NORAD_CAT_ID": 40938, "ELEMENT_SET_NO": 999, "REV_AT_EPOCH": 3743, "BSTAR": 0, "MEAN_MOTION_DOT": -1.42e-06, "MEAN_MOTION_DDOT": 0}, "tle": {"line1": "1 40938U 15053A   25341.74975483 -.00000142  00000+0  00000+0 0  9996", "line2": "2 40938  49.5194 261.0646 0060962 188.6217 353.0712  1.00270783 37435"}}, "geometry": {"type": "Point", "coordinates": [98.57851426963249, -19.469407516646253]}}, {"type": "Feature", "properties": {"norad_id": 41434, "name": "BEIDOU-2 IGSO-6 (C13)", "group": "beidou", "lat": 49.93303204789927, "lon": 83.38261501656316, "alt_km": 36031.36841555368, "timestamp": "2025-12-08T19:31:49.075413+00:00", "meta": {"OBJECT_NAME": "BEIDOU-2 IGSO-6 (C13)", "OBJECT_ID": "2016-021A", "EPOCH": "2025-12-01T15:57:35.287200", "MEAN_MOTION": 1.00256562, "ECCENTRICITY": 0.00591323, "INCLINATION": 59.9483, "RA_OF_ASC_NODE": 40.0119, "ARG_OF_PERICENTER": 231.2834, "MEAN_ANOMALY": 130.8807, "EPHEMERIS_TYPE": 0, "CLASSIFICATION_TYPE": "U", "NORAD_CAT_ID": 41434, "ELEMENT_SET_NO": 999, "REV_AT_EPOCH": 3550, "BSTAR": 0, "MEAN_MOTION_DOT": -1.55e-06, "MEAN_MOTION_DDOT": 0}, "tle": {"line1": "1 41434U 16021A   25335.66499175 -.00000155  00000+0  00000+0 0  9991", "line2": "2 41434  59.9483  40.0119 0059132 231.2834 130.8807  1.00256562 35501"}}, "geometry": {"type": "Point", "coordinates": [83.38261501656316, 49.93303204789927]}}, {"type": "Feature", "properties": {"norad_id": 41586, "name": "BEIDOU-2 G7 (C03)", "group": "beidou", "lat": 1.4200284193512978, "lon": 121.26596348365894, "alt_km": 35775.32243562758, "timestamp": "2025-12-08T19:31:49.075425+00:00", "meta": {"OBJECT_NAME": "BEIDOU-2 G7 (C03)", "OBJECT_ID": "2016-037A", "EPOCH": "2025-12-08T07:16:51.079872", "MEAN_MOTION": 1.00269333, "ECCENTRICITY": 0.00044434, "INCLINATION": 1.7461, "RA_OF_ASC_NODE": 67.7601, "ARG_OF_PERICENTER": 0.4598, "MEAN_ANOMALY": 228.7804, "EPHEMERIS_TYPE": 0, "CLASSIFICATION_TYPE": "U", "NORAD_CAT_ID": 41586, "ELEMENT_SET_NO": 999, "REV_AT_EPOCH": 497, "BSTAR": 0, "MEAN_MOTION_DOT": -3.51e-06, "MEAN_MOTION_DDOT": 0}, "tle": {"line1": "1 41586U 16037A   25342.30336898 -.00000351  00000+0  00000+0 0  9995", "line2": "2 41586   1.7461  67.7601 0004443   0.4598 228.7804  1.00269333  4971"}}, "geometry": {"type": "Point", "coordinates": [121.26596348365894, 1.4200284193512978]}}, {"type": "Feature", "properties": {"norad_id": 43001, "name": "BEIDOU-3 M1 (C19)", "group": "beidou", "lat": -17.29124132157846, "lon": -98.7569835144695, "alt_km": 21536.154876998167, "timestamp": "2025-12-08T19:31:49.075435+00:00", "meta": {"OBJECT_NAME": "BEIDOU-3 M1 (C19)", "OBJECT_ID": "2017-069A", "EPOCH": "2025-12-07T10:33:38.997216", "MEAN_MOTION": 1.86230818, "ECCENTRICITY": 0.00090499, "INCLINATION": 56.5227, "RA_OF_ASC_NODE": 69.4088, "ARG_OF_PERICENTER": 303.7178, "MEAN_ANOMALY": 56.2144, "EPHEMERIS_TYPE": 0, "CLASSIFICATION_TYPE": "U", "NORAD_CAT_ID": 43001, "ELEMENT_SET_NO": 999, "REV_AT_EPOCH": 5503, "BSTAR": 0, "MEAN_MOTION_DOT": -4.4e-07, "MEAN_MOTION_DDOT": 0}, "tle": {"line1": "1 43001U 17069A   25341.44003469 -.00000044  00000+0  00000+0 0  9993", "line2": "2 43001  56.5227  69.4088 0009049 303.7178  56.2144  1.86230818 55035"}}, "geometry": {"type": "Point", "coordinates": [-98.7569835144695, -17.29124132157846]}}, {"type": "Feature", "properties": {"norad_id": 43002, "name": "BEIDOU-3 M2 (C20)", "group": "beidou", "lat": -47.60187500747279, "lon": -64.23059698254063, "alt_km": 21533.086070846093, "timestamp": "2025-12-08T19:31:49.075446+00:00", "meta": {"OBJECT_NAME": "BEIDOU-3 M2 (C20)", "OBJECT_ID": "2017-069B", "EPOCH": "2025-12-07T21:58:05.782944", "MEAN_MOTION": 1.86230666, "ECCENTRICITY": 0.00063719, "INCLINATION": 56.5222, "RA_OF_ASC_NODE": 69.4295, "ARG_OF_PERICENTER": 330.8789, "MEAN_ANOMALY": 29.1054, "EPHEMERIS_TYPE": 0, "CLASSIFICATION_TYPE": "U", "NORAD_CAT_ID": 43002, "ELEMENT_SET_NO": 999, "REV_AT_EPOCH": 5503, "BSTAR": 0, "MEAN_MOTION_DOT": -4.4e-07, "MEAN_MOTION_DDOT": 0}, "tle": {"line1": "1 43002U 17069B   25341.91534471 -.00000044  00000+0  00000+0 0  9998", "line2": "2 43002  56.5222  69.4295 0006371 330.8789  29.1054  1.86230666 55035"}}, "geometry": {"type": "Point", "coordinates": [-64.23059698254063, -47.60187500747279]}}, {"type": "Feature", "properties": {"norad_id": 43107, "name": "BEIDOU-3 M7 (C27)", "group": "beidou", "lat": 41.59198107315888, "lon": -11.790230312753728, "alt_km": 21515.520580230535, "timestamp": "2025-12-08T19:31:49.075456+00:00", "meta": {"OBJECT_NAME": "BEIDOU-3 M7 (C27)", "OBJECT_ID": "2018-003A", "EPOCH": "2025-12-08T04:41:21.323616", "MEAN_MOTION": 1.86232307, "ECCENTRICITY": 0.00027231, "INCLINATION": 54.5008, "RA_OF_ASC_NODE": 308.973, "ARG_OF_PERICENTER": 69.0178, "MEAN_ANOMALY": 290.9986, "EPHEMERIS_TYPE": 0, "CLASSIFICATION_TYPE": "U", "NORAD_CAT_ID": 43107, "ELEMENT_SET_NO": 999, "REV_AT_EPOCH": 5379, "BSTAR": 0, "MEAN_MOTION_DOT": -7.3e-07, "MEAN_MOTION_DDOT": 0}, "tle": {"line1": "1 43107U 18003A   25342.19538569 -.00000073  00000+0  00000+0 0  9998", "line2": "2 43107  54.5008 308.9730 0002723  69.0178 290.9986  1.86232307 53793"}}, "geometry": {"type": "Point", "coordinates": [-11.790230312753728, 41.59198107315888]}}, {"type": "Feature", "properties": {"norad_id": 43108, "name": "BEIDOU-3 M8 (C28)", "group": "beidou", "lat": 54.465451004664516, "lon": 41.54553591749676, "alt_km": 21534.92636714702, "timestamp": "2025-12-08T19:31:49.075466+00:00", "meta": {"OBJECT_NAME": "BEIDOU-3 M8 (C28)", "OBJECT_ID": "2018-003B", "EPOCH": "2025-12-07T14:28:44.838336", "MEAN_MOTION": 1.86230783, "ECCENTRICITY": 0.00047344, "INCLINATION": 54.4942, "RA_OF_ASC_NODE": 308.9763, "ARG_OF_PERICENTER": 275.286, "MEAN_ANOMALY": 84.6457, "EPHEMERIS_TYPE": 0, "CLASSIFICATION_TYPE": "U", "NORAD_CAT_ID": 43108, "ELEMENT_SET_NO": 999, "REV_AT_EPOCH": 5379, "BSTAR": 0, "MEAN_MOTION_DOT": -7.2e-07, "MEAN_MOTION_DDOT": 0}, "tle": {"line1": "1 43108U 18003B   25341.60329674 -.00000072  00000+0  00000+0 0  9998", "line2": "2 43108  54.4942 308.9763 0004734 275.2860  84.6457  1.86230783 53796"}}, "geometry": {"type": "Point", "coordinates": [41.54553591749676, 54.465451004664516]}}]}